OBJECT_NAME,OBJECT_ID,EPOCH,MEAN_MOTION,ECCENTRICITY,INCLINATION,RA_OF_ASC_NODE,ARG_OF_PERICENTER,MEAN_ANOMALY,EPHEMERIS_TYPE,CLASSIFICATION_TYPE,NORAD_CAT_ID,ELEMENT_SET_NO,REV_AT_EPOCH,BSTAR,MEAN_MOTION_DOT,MEAN_MOTION_DDOT
TIANMU-1 21,2023-208C,2026-06-16T03:20:51.008064,15.35061665,.0006027,97.4510,286.7437,328.2160,31.8719,0,U,58662,999,13740,.243E-3,.819E-4,0
TIANMU-1 22,2023-208D,2026-06-16T05:21:15.406272,15.31046882,.0003325,97.4506,283.4543,7.6968,352.4323,0,U,58663,999,13718,.20779E-3,.6155E-4,0
TIANMU-1 15,2024-004A,2026-06-16T04:20:57.744096,15.27015263,.0006819,97.4662,353.3712,5.9769,354.1549,0,U,58700,999,13562,.18399E-3,.4805E-4,0
TIANMU-1 16,2024-004B,2026-06-16T04:05:12.134976,15.26740073,.0005948,97.4608,352.5983,11.2955,348.8416,0,U,58701,999,13562,.18211E-3,.4715E-4,0
TIANMU-1 17,2024-004C,2026-06-16T05:18:38.011392,15.26739513,.000563,97.4637,353.1338,17.6363,342.5070,0,U,58702,999,13562,.17558E-3,.4543E-4,0
TIANMU-1 18,2024-004D,2026-06-16T04:44:52.173312,15.26997033,.000414,97.4655,353.3652,18.7357,341.4033,0,U,58703,999,13562,.17458E-3,.4551E-4,0
INSAT-3DS,2024-033A,2026-06-16T01:25:39.961056,1.00271416,.0000985,0.0433,115.2465,319.0342,293.5710,0,U,58990,999,4705,0,-.156E-5,0
METEOR-M2 4,2024-039A,2026-06-16T04:46:02.897760,14.22429426,.0007227,98.7010,126.5091,163.7378,196.4033,0,U,59051,999,11912,.1777E-4,-.4E-7,0
GOES 19,2024-119A,2026-06-16T05:27:00.105120,1.00271553,.0000424,0.0041,114.8136,73.1428,83.1050,0,U,60133,999,695,0,-.249E-5,0
MTG-S1,2025-143A,2026-06-16T02:43:53.792256,1.00271993,.0000989,0.6041,338.7016,11.4839,311.7067,0,U,64723,999,340,0,-.31E-6,0
METOP-SGA1,2025-172A,2026-06-16T03:40:47.623872,14.21509720,.0000902,98.6644,226.8998,93.8213,266.3067,0,U,65159,999,4364,.42E-4,.49E-6,0
FENGYUN 3H,2025-219A,2026-06-16T02:59:59.637120,14.19920298,.0001588,98.6768,107.9147,77.1402,282.9952,0,U,65815,999,3723,.37257E-4,.36E-6,0
